ONEWEB-0579             
1 56068U 23043Y   24272.55493987  .00000139  00000+0  30566-3 0  9999
2 56068  87.9366   8.7492 0002066 111.7550 248.3804 13.21825346 75466
ONEWEB-0581             
1 56069U 23043Z   24272.47934394  .00000059  00000+0  12059-3 0  9991
2 56069  87.9174 353.6184 0001507 115.5073 244.6214 13.16595572 76492
ONEWEB-0609             
1 56070U 23043AA  24272.54743569  .00000117  00000+0  27672-3 0  9995
2 56070  87.9115  23.9233 0001918 100.5963 259.5383 13.15548962 74040
ONEWEB-0630             
1 56072U 23043AC  24272.38582251  .00000132  00000+0  31533-3 0  9996
2 56072  87.9115  23.9427 0002110 107.3519 252.7842 13.15546324 74016
ONEWEB-0632             
1 56073U 23043AD  24272.60923050  .00000279  00000+0  70614-3 0  9993
2 56073  87.9115  23.9174 0001584 110.9048 249.2252 13.15549645 74045
ONEWEB-0633             
1 56074U 23043AE  24272.60289897  .00000272  00000+0  68949-3 0  9999
2 56074  87.9112  23.8965 0002379 105.8067 254.3325 13.15549395 74025
